[{"OBJECT_NAME":"LEMUR-2-AMANDA-SVANTE","OBJECT_ID":"2021-034B","EPOCH":"2026-03-09T18:37:58.823328","MEAN_MOTION":15.28469003,"ECCENTRICITY":0.00027027,"INCLINATION":97.5829,"RA_OF_ASC_NODE":144.8625,"ARG_OF_PERICENTER":205.4721,"MEAN_ANOMALY":154.6385,"EPHEMERIS_TYPE":0,"CLASSIFICATION_TYPE":"U","NORAD_CAT_ID":48269,"ELEMENT_SET_NO":999,"REV_AT_EPOCH":26584,"BSTAR":0.0011134246,"MEAN_MOTION_DOT":0.00030872,"MEAN_MOTION_DDOT":0},{"OBJECT_NAME":"STARLINK-31977","OBJECT_ID":"2024-100H","EPOCH":"2026-03-09T10:46:13.283904","MEAN_MOTION":15.27561329,"ECCENTRICITY":8.313e-5,"INCLINATION":42.9997,"RA_OF_ASC_NODE":119.5264,"ARG_OF_PERICENTER":250.3237,"MEAN_ANOMALY":109.7525,"EPHEMERIS_TYPE":0,"CLASSIFICATION_TYPE":"U","NORAD_CAT_ID":59892,"ELEMENT_SET_NO":999,"REV_AT_EPOCH":10120,"BSTAR":-4.352118e-6,"MEAN_MOTION_DOT":-3.81e-6,"MEAN_MOTION_DDOT":0}]
